{
  "type": "FeatureCollection",
  "features": [
    {
      "type": "Feature",
      "properties": {
        "norad_id": 36828,
        "name": "BEIDOU-2 IGSO-1 (C06)",
        "group": "beidou",
        "lat": -28.403120927707114,
        "lon": 141.65590773968955,
        "alt_km": 35855.635449472866,
        "timestamp": "2025-12-17T19:34:08.303501+00:00",
        "meta_object_name": "BEIDOU-2 IGSO-1 (C06)",
        "meta_object_id": "2010-036A",
        "meta_epoch": "2025-12-14T21:38:21.623424",
        "meta_mean_motion": 1.00275796,
        "meta_eccentricity": 0.00512569,
        "meta_inclination": 54.2866,
        "meta_ra_of_asc_node": 164.6279,
        "meta_arg_of_pericenter": 215.8888,
        "meta_mean_anomaly": 135.7931,
        "meta_ephemeris_type": 0,
        "meta_classification_type": "U",
        "meta_norad_cat_id": 36828,
        "meta_element_set_no": 999,
        "meta_rev_at_epoch": 5624,
        "meta_bstar": 0,
        "meta_mean_motion_dot": -2.4e-07,
        "meta_mean_motion_ddot": 0,
        "tle_line1": "1 36828U 10036A   25348.90163916 -.00000024  00000+0  00000+0 0  9999",
        "tle_line2": "2 36828  54.2866 164.6279 0051256 215.8888 135.7931  1.00275796 56247"
      },
      "geometry": {
        "type": "Point",
        "coordinates": [
          141.65590773968955,
          -28.403120927707114
        ]
      }
    },
    {
      "type": "Feature",
      "properties": {
        "norad_id": 37210,
        "name": "BEIDOU-2 G4 (C04)",
        "group": "beidou",
        "lat": 2.994449836377642,
        "lon": -179.79670924892466,
        "alt_km": 35779.3608960439,
        "timestamp": "2025-12-17T19:34:08.303524+00:00",
        "meta_object_name": "BEIDOU-2 G4 (C04)",
        "meta_object_id": "2010-057A",
        "meta_epoch": "2025-12-17T03:48:54.739296",
        "meta_mean_motion": 1.00271975,
        "meta_eccentricity": 0.0010516,
        "meta_inclination": 3.1954,
        "meta_ra_of_asc_node": 69.923,
        "meta_arg_of_pericenter": 192.1891,
        "meta_mean_anomaly": 41.2344,
        "meta_ephemeris_type": 0,
        "meta_classification_type": "U",
        "meta_norad_cat_id": 37210,
        "meta_element_set_no": 999,
        "meta_rev_at_epoch": 5546,
        "meta_bstar": 0,
        "meta_mean_motion_dot": -8.9e-07,
        "meta_mean_motion_ddot": 0,
        "tle_line1": "1 37210U 10057A   25351.15896689 -.00000089  00000+0  00000+0 0  9990",
        "tle_line2": "2 37210   3.1954  69.9230 0010516 192.1891  41.2344  1.00271975 55460"
      },
      "geometry": {
        "type": "Point",
        "coordinates": [
          -179.79670924892466,
          2.994449836377642
        ]
      }
    },
    {
      "type": "Feature",
      "properties": {
        "norad_id": 37256,
        "name": "BEIDOU-2 IGSO-2 (C07)",
        "group": "beidou",
        "lat": -24.482139619132646,
        "lon": 118.3369280654592,
        "alt_km": 35582.97596069142,
        "timestamp": "2025-12-17T19:34:08.303539+00:00",
        "meta_object_name": "BEIDOU-2 IGSO-2 (C07)",
        "meta_object_id": "2010-068A",
        "meta_epoch": "2025-12-16T17:17:38.444640",
        "meta_mean_motion": 1.00285618,
        "meta_eccentricity": 0.0048244,
        "meta_inclination": 47.8781,
        "meta_ra_of_asc_node": 274.0996,
        "meta_arg_of_pericenter": 216.2935,
        "meta_mean_anomaly": 322.4053,
        "meta_ephemeris_type": 0,
        "meta_classification_type": "U",
        "meta_norad_cat_id": 37256,
        "meta_element_set_no": 999,
        "meta_rev_at_epoch": 5496,
        "meta_bstar": 0,
        "meta_mean_motion_dot": -2.14e-06,
        "meta_mean_motion_ddot": 0,
        "tle_line1": "1 37256U 10068A   25350.72058385 -.00000214  00000+0  00000+0 0  9997",
        "tle_line2": "2 37256  47.8781 274.0996 0048244 216.2935 322.4053  1.00285618 54961"
      },
      "geometry": {
        "type": "Point",
        "coordinates": [
          118.3369280654592,
          -24.482139619132646
        ]
      }
    },
    {
      "type": "Feature",
      "properties": {
        "norad_id": 37384,
        "name": "BEIDOU-2 IGSO-3 (C08)",
        "group": "beidou",
        "lat": 61.807277234641575,
        "lon": 121.96254986648343,
        "alt_km": 35813.27773021548,
        "timestamp": "2025-12-17T19:34:08.303552+00:00",
        "meta_object_name": "BEIDOU-2 IGSO-3 (C08)",
        "meta_object_id": "2011-013A",
        "meta_epoch": "2025-12-16T19:14:25.722240",
        "meta_mean_motion": 1.00270021,
        "meta_eccentricity": 0.00353731,
        "meta_inclination": 62.1488,
        "meta_ra_of_asc_node": 41.877,
        "meta_arg_of_pericenter": 187.9496,
        "meta_mean_anomaly": 251.9313,
        "meta_ephemeris_type": 0,
        "meta_classification_type": "U",
        "meta_norad_cat_id": 37384,
        "meta_element_set_no": 999,
        "meta_rev_at_epoch": 5383,
        "meta_bstar": 0,
        "meta_mean_motion_dot": -1.84e-06,
        "meta_mean_motion_ddot": 0,
        "tle_line1": "1 37384U 11013A   25350.80168660 -.00000184  00000+0  00000+0 0  9993",
        "tle_line2": "2 37384  62.1488  41.8770 0035373 187.9496 251.9313  1.00270021 53834"
      },
      "geometry": {
        "type": "Point",
        "coordinates": [
          121.96254986648343,
          61.807277234641575
        ]
      }
    },
    {
      "type": "Feature",
      "properties": {
        "norad_id": 37763,
        "name": "BEIDOU-2 IGSO-4 (C09)",
        "group": "beidou",
        "lat": -39.167795535120085,
        "lon": 131.7950707869735,
        "alt_km": 35657.821526267624,
        "timestamp": "2025-12-17T19:34:08.303564+00:00",
        "meta_object_name": "BEIDOU-2 IGSO-4 (C09)",
        "meta_object_id": "2011-038A",
        "meta_epoch": "2025-12-15T07:50:06.120672",
        "meta_mean_motion": 1.00281785,
        "meta_eccentricity": 0.01493054,
        "meta_inclination": 54.5835,
        "meta_ra_of_asc_node": 167.3229,
        "meta_arg_of_pericenter": 230.222,
        "meta_mean_anomaly": 258.6911,
        "meta_ephemeris_type": 0,
        "meta_classification_type": "U",
        "meta_norad_cat_id": 37763,
        "meta_element_set_no": 999,
        "meta_rev_at_epoch": 5280,
        "meta_bstar": 0,
        "meta_mean_motion_dot": 6.8e-07,
        "meta_mean_motion_ddot": 0,
        "tle_line1": "1 37763U 11038A   25349.32645973  .00000068  00000+0  00000+0 0  9993",
        "tle_line2": "2 37763  54.5835 167.3229 0149305 230.2220 258.6911  1.00281785 52800"
      },
      "geometry": {
        "type": "Point",
        "coordinates": [
          131.7950707869735,
          -39.167795535120085
        ]
      }
    },
    {
      "type": "Feature",
      "properties": {
        "norad_id": 37948,
        "name": "BEIDOU-2 IGSO-5 (C10)",
        "group": "beidou",
        "lat": -14.171267695216825,
        "lon": 106.88639758793373,
        "alt_km": 35356.59139810409,
        "timestamp": "2025-12-17T19:34:08.303576+00:00",
        "meta_object_name": "BEIDOU-2 IGSO-5 (C10)",
        "meta_object_id": "2011-073A",
        "meta_epoch": "2025-12-16T20:45:03.347712",
        "meta_mean_motion": 1.00290524,
        "meta_eccentricity": 0.01100285,
        "meta_inclination": 48.0123,
        "meta_ra_of_asc_node": 273.8075,
        "meta_arg_of_pericenter": 222.3616,
        "meta_mean_anomaly": 354.0663,
        "meta_ephemeris_type": 0,
        "meta_classification_type": "U",
        "meta_norad_cat_id": 37948,
        "meta_element_set_no": 999,
        "meta_rev_at_epoch": 5130,
        "meta_bstar": 0,
        "meta_mean_motion_dot": -1.89e-06,
        "meta_mean_motion_ddot": 0,
        "tle_line1": "1 37948U 11073A   25350.86462208 -.00000189  00000+0  00000+0 0  9991",
        "tle_line2": "2 37948  48.0123 273.8075 0110028 222.3616 354.0663  1.00290524 51306"
      },
      "geometry": {
        "type": "Point",
        "coordinates": [
          106.88639758793373,
          -14.171267695216825
        ]
      }
    },
    {
      "type": "Feature",
      "properties": {
        "norad_id": 38091,
        "name": "BEIDOU-2 G5 (C05)",
        "group": "beidou",
        "lat": 0.48278381340525234,
        "lon": 79.10480947663405,
        "alt_km": 35827.58315117872,
        "timestamp": "2025-12-17T19:34:08.303594+00:00",
        "meta_object_name": "BEIDOU-2 G5 (C05)",
        "meta_object_id": "2012-008A",
        "meta_epoch": "2025-12-16T15:20:55.893984",
        "meta_mean_motion": 1.00267602,
        "meta_eccentricity": 0.00130267,
        "meta_inclination": 3.1186,
        "meta_ra_of_asc_node": 70.7002,
        "meta_arg_of_pericenter": 231.2097,
        "meta_mean_anomaly": 72.6715,
        "meta_ephemeris_type": 0,
        "meta_classification_type": "U",
        "meta_norad_cat_id": 38091,
        "meta_element_set_no": 999,
        "meta_rev_at_epoch": 5053,
        "meta_bstar": 0,
        "meta_mean_motion_dot": 7.8e-07,
        "meta_mean_motion_ddot": 0,
        "tle_line1": "1 38091U 12008A   25350.63953581  .00000078  00000+0  00000+0 0  9990",
        "tle_line2": "2 38091   3.1186  70.7002 0013026 231.2097  72.6715  1.00267602 50539"
      },
      "geometry": {
        "type": "Point",
        "coordinates": [
          79.10480947663405,
          0.48278381340525234
        ]
      }
    }
  ]
}